ONEWEB-0120             
1 47266U 20100J   25159.43817401 -.00000054  00000+0 -18684-3 0  9998
2 47266  87.8892  65.0200 0002095  78.5482 281.5882 13.12443311215704
ONEWEB-0121             
1 47267U 20100K   25159.19798766  .00000380  00000+0  10211-2 0  9991
2 47267  87.8890  65.0406 0002077  83.0756 277.0609 13.12435902215586
ONEWEB-0122             
1 47268U 20100L   25159.49791888  .00000251  00000+0  66165-3 0  9990
2 47268  87.8885  64.9855 0002024  82.6933 277.4426 13.12441475215539
ONEWEB-0123             
1 47269U 20100M   25159.18824104  .00000506  00000+0  13711-2 0  9996
2 47269  87.8888  65.0735 0001971  76.2468 283.8880 13.12444115215634
ONEWEB-0124             
1 47270U 20100N   25159.48182704  .00000221  00000+0  57854-3 0  9995
2 47270  87.8889  65.0129 0001713  78.4413 281.6908 13.12445274215557
ONEWEB-0125             
1 47271U 20100P   25159.45910071 -.00000360  00000+0 -10351-2 0  9995
2 47271  87.8892  64.9801 0001763  70.1574 289.9745 13.12441170215617
ONEWEB-0126             
1 47272U 20100Q   25159.48035799  .00000196  00000+0  50927-3 0  9993
2 47272  87.8910  64.9852 0001927  78.1557 281.9788 13.12426067215680
ONEWEB-0127             
1 47273U 20100R   25159.44614153 -.00000281  00000+0 -81622-3 0  9990
2 47273  87.8890  65.0158 0002069  80.6439 279.4923 13.12444038215708
